[{"OBJECT_NAME":"HIBARI","OBJECT_ID":"2021-102F","EPOCH":"2026-03-09T16:55:51.090816","MEAN_MOTION":15.29554512,"ECCENTRICITY":0.00120742,"INCLINATION":97.3381,"RA_OF_ASC_NODE":115.826,"ARG_OF_PERICENTER":186.5211,"MEAN_ANOMALY":173.5875,"EPHEMERIS_TYPE":0,"CLASSIFICATION_TYPE":"U","NORAD_CAT_ID":49400,"ELEMENT_SET_NO":999,"REV_AT_EPOCH":23897,"BSTAR":0.00042758039,"MEAN_MOTION_DOT":0.00012206,"MEAN_MOTION_DDOT":0},{"OBJECT_NAME":"STARLINK-30266","OBJECT_ID":"2023-115J","EPOCH":"2026-03-08T06:02:19.174848","MEAN_MOTION":15.27319514,"ECCENTRICITY":0.00017639,"INCLINATION":43.0018,"RA_OF_ASC_NODE":9.5251,"ARG_OF_PERICENTER":256.7731,"MEAN_ANOMALY":103.2924,"EPHEMERIS_TYPE":0,"CLASSIFICATION_TYPE":"U","NORAD_CAT_ID":57529,"ELEMENT_SET_NO":999,"REV_AT_EPOCH":14213,"BSTAR":0.0045460202,"MEAN_MOTION_DOT":0.00125986,"MEAN_MOTION_DDOT":0}]
